{
  "type": "FeatureCollection",
  "features": [
    {
      "type": "Feature",
      "properties": {
        "norad_id": 41860,
        "name": "GSAT0212 (GALILEO 16)",
        "group": "galileo",
        "lat": 15.488004571114825,
        "lon": -84.71371727922902,
        "alt_km": 23224.597882148886,
        "timestamp": "2025-12-09T23:33:24.117457+00:00",
        "meta_object_name": "GSAT0212 (GALILEO 16)",
        "meta_object_id": "2016-069B",
        "meta_epoch": "2025-12-09T03:10:58.927872",
        "meta_mean_motion": 1.70474546,
        "meta_eccentricity": 0.00021877,
        "meta_inclination": 55.3778,
        "meta_ra_of_asc_node": 106.3455,
        "meta_arg_of_pericenter": 30.0277,
        "meta_mean_anomaly": 329.9496,
        "meta_ephemeris_type": 0,
        "meta_classification_type": "U",
        "meta_norad_cat_id": 41860,
        "meta_element_set_no": 999,
        "meta_rev_at_epoch": 5641,
        "meta_bstar": 0,
        "meta_mean_motion_dot": 1e-07,
        "meta_mean_motion_ddot": 0,
        "tle_line1": "1 41860U 16069B   25343.13262648  .00000010  00000+0  00000+0 0  9999",
        "tle_line2": "2 41860  55.3778 106.3455 0002187  30.0277 329.9496  1.70474546 56413"
      },
      "geometry": {
        "type": "Point",
        "coordinates": [
          -84.71371727922902,
          15.488004571114825
        ]
      }
    },
    {
      "type": "Feature",
      "properties": {
        "norad_id": 41861,
        "name": "GSAT0213 (GALILEO 17)",
        "group": "galileo",
        "lat": -48.02860960230381,
        "lon": 56.2140929216168,
        "alt_km": 23220.923487266897,
        "timestamp": "2025-12-09T23:33:24.117469+00:00",
        "meta_object_name": "GSAT0213 (GALILEO 17)",
        "meta_object_id": "2016-069C",
        "meta_epoch": "2025-12-08T21:55:35.814144",
        "meta_mean_motion": 1.70474823,
        "meta_eccentricity": 0.00022753,
        "meta_inclination": 55.38,
        "meta_ra_of_asc_node": 106.3592,
        "meta_arg_of_pericenter": 283.5203,
        "meta_mean_anomaly": 76.4183,
        "meta_ephemeris_type": 0,
        "meta_classification_type": "U",
        "meta_norad_cat_id": 41861,
        "meta_element_set_no": 999,
        "meta_rev_at_epoch": 5627,
        "meta_bstar": 0,
        "meta_mean_motion_dot": 1e-07,
        "meta_mean_motion_ddot": 0,
        "tle_line1": "1 41861U 16069C   25342.91360896  .00000010  00000+0  00000+0 0  9999",
        "tle_line2": "2 41861  55.3800 106.3592 0002275 283.5203  76.4183  1.70474823 56273"
      },
      "geometry": {
        "type": "Point",
        "coordinates": [
          56.2140929216168,
          -48.02860960230381
        ]
      }
    },
    {
      "type": "Feature",
      "properties": {
        "norad_id": 41862,
        "name": "GSAT0214 (GALILEO 18)",
        "group": "galileo",
        "lat": -21.005096736155245,
        "lon": -58.32071375795617,
        "alt_km": 23224.605031187337,
        "timestamp": "2025-12-09T23:33:24.117480+00:00",
        "meta_object_name": "GSAT0214 (GALILEO 18)",
        "meta_object_id": "2016-069D",
        "meta_epoch": "2025-12-07T21:16:28.160256",
        "meta_mean_motion": 1.70474622,
        "meta_eccentricity": 0.00012492,
        "meta_inclination": 55.3777,
        "meta_ra_of_asc_node": 106.3805,
        "meta_arg_of_pericenter": 290.0949,
        "meta_mean_anomaly": 69.8506,
        "meta_ephemeris_type": 0,
        "meta_classification_type": "U",
        "meta_norad_cat_id": 41862,
        "meta_element_set_no": 999,
        "meta_rev_at_epoch": 5638,
        "meta_bstar": 0,
        "meta_mean_motion_dot": 8e-08,
        "meta_mean_motion_ddot": 0,
        "tle_line1": "1 41862U 16069D   25341.88643704  .00000008  00000+0  00000+0 0  9994",
        "tle_line2": "2 41862  55.3777 106.3805 0001249 290.0949  69.8506  1.70474622 56388"
      },
      "geometry": {
        "type": "Point",
        "coordinates": [
          -58.32071375795617,
          -21.005096736155245
        ]
      }
    },
    {
      "type": "Feature",
      "properties": {
        "norad_id": 43055,
        "name": "GSAT0215 (GALILEO 19)",
        "group": "galileo",
        "lat": -54.82264508673835,
        "lon": 127.98609655586807,
        "alt_km": 23227.260383491495,
        "timestamp": "2025-12-09T23:33:24.117492+00:00",
        "meta_object_name": "GSAT0215 (GALILEO 19)",
        "meta_object_id": "2017-079A",
        "meta_epoch": "2025-12-07T04:52:59.598912",
        "meta_mean_motion": 1.70473814,
        "meta_eccentricity": 0.000129,
        "meta_inclination": 55.132,
        "meta_ra_of_asc_node": 226.7904,
        "meta_arg_of_pericenter": 342.2986,
        "meta_mean_anomaly": 17.7924,
        "meta_ephemeris_type": 0,
        "meta_classification_type": "U",
        "meta_norad_cat_id": 43055,
        "meta_element_set_no": 999,
        "meta_rev_at_epoch": 4971,
        "meta_bstar": 0,
        "meta_mean_motion_dot": 2.6e-07,
        "meta_mean_motion_ddot": 0,
        "tle_line1": "1 43055U 17079A   25341.20346758  .00000026  00000+0  00000+0 0  9997",
        "tle_line2": "2 43055  55.1320 226.7904 0001290 342.2986  17.7924  1.70473814 49717"
      },
      "geometry": {
        "type": "Point",
        "coordinates": [
          127.98609655586807,
          -54.82264508673835
        ]
      }
    },
    {
      "type": "Feature",
      "properties": {
        "norad_id": 43056,
        "name": "GSAT0216 (GALILEO 20)",
        "group": "galileo",
        "lat": 54.95983622743883,
        "lon": -49.849086187671645,
        "alt_km": 23220.386889429185,
        "timestamp": "2025-12-09T23:33:24.117504+00:00",
        "meta_object_name": "GSAT0216 (GALILEO 20)",
        "meta_object_id": "2017-079B",
        "meta_epoch": "2025-12-08T01:57:06.766848",
        "meta_mean_motion": 1.70473892,
        "meta_eccentricity": 0.00025149,
        "meta_inclination": 55.132,
        "meta_ra_of_asc_node": 226.7661,
        "meta_arg_of_pericenter": 318.3772,
        "meta_mean_anomaly": 41.6956,
        "meta_ephemeris_type": 0,
        "meta_classification_type": "U",
        "meta_norad_cat_id": 43056,
        "meta_element_set_no": 999,
        "meta_rev_at_epoch": 4974,
        "meta_bstar": 0,
        "meta_mean_motion_dot": 1.9e-07,
        "meta_mean_motion_ddot": 0,
        "tle_line1": "1 43056U 17079B   25342.08132832  .00000019  00000+0  00000+0 0  9993",
        "tle_line2": "2 43056  55.1320 226.7661 0002514 318.3772  41.6956  1.70473892 49745"
      },
      "geometry": {
        "type": "Point",
        "coordinates": [
          -49.849086187671645,
          54.95983622743883
        ]
      }
    },
    {
      "type": "Feature",
      "properties": {
        "norad_id": 43057,
        "name": "GSAT0217 (GALILEO 21)",
        "group": "galileo",
        "lat": -38.44294141460488,
        "lon": -166.85545235391194,
        "alt_km": 23219.78253023851,
        "timestamp": "2025-12-09T23:33:24.117515+00:00",
        "meta_object_name": "GSAT0217 (GALILEO 21)",
        "meta_object_id": "2017-079C",
        "meta_epoch": "2025-12-08T07:14:55.853376",
        "meta_mean_motion": 1.70473894,
        "meta_eccentricity": 0.0002795,
        "meta_inclination": 55.1299,
        "meta_ra_of_asc_node": 226.758,
        "meta_arg_of_pericenter": 342.2851,
        "meta_mean_anomaly": 17.7961,
        "meta_ephemeris_type": 0,
        "meta_classification_type": "U",
        "meta_norad_cat_id": 43057,
        "meta_element_set_no": 999,
        "meta_rev_at_epoch": 4973,
        "meta_bstar": 0,
        "meta_mean_motion_dot": 1.7e-07,
        "meta_mean_motion_ddot": 0,
        "tle_line1": "1 43057U 17079C   25342.30203534  .00000017  00000+0  00000+0 0  9995",
        "tle_line2": "2 43057  55.1299 226.7580 0002795 342.2851  17.7961  1.70473894 49737"
      },
      "geometry": {
        "type": "Point",
        "coordinates": [
          -166.85545235391194,
          -38.44294141460488
        ]
      }
    },
    {
      "type": "Feature",
      "properties": {
        "norad_id": 43058,
        "name": "GSAT0218 (GALILEO 22)",
        "group": "galileo",
        "lat": 3.5265440518210465,
        "lon": 44.2577328451878,
        "alt_km": 23227.41864609333,
        "timestamp": "2025-12-09T23:33:24.117526+00:00",
        "meta_object_name": "GSAT0218 (GALILEO 22)",
        "meta_object_id": "2017-079D",
        "meta_epoch": "2025-12-09T02:36:28.325952",
        "meta_mean_motion": 1.70473942,
        "meta_eccentricity": 0.00028125,
        "meta_inclination": 55.1298,
        "meta_ra_of_asc_node": 226.7335,
        "meta_arg_of_pericenter": 306.3632,
        "meta_mean_anomaly": 53.6978,
        "meta_ephemeris_type": 0,
        "meta_classification_type": "U",
        "meta_norad_cat_id": 43058,
        "meta_element_set_no": 999,
        "meta_rev_at_epoch": 4977,
        "meta_bstar": 0,
        "meta_mean_motion_dot": 1.2e-07,
        "meta_mean_motion_ddot": 0,
        "tle_line1": "1 43058U 17079D   25343.10866118  .00000012  00000+0  00000+0 0  9993",
        "tle_line2": "2 43058  55.1298 226.7335 0002812 306.3632  53.6978  1.70473942 49778"
      },
      "geometry": {
        "type": "Point",
        "coordinates": [
          44.2577328451878,
          3.5265440518210465
        ]
      }
    }
  ]
}